DELTA 2 R/B(1)          
1 20453U 90008B   26006.92981760  .00051518  00000+0  76958-3 0  9994
2 20453  35.6034 217.5803 0104088  47.4743 313.4726 15.47817393916531
COSMOS 2058             
1 20465U 90010A   26007.52546100  .00003718  00000+0  22223-3 0  9997
2 20465  82.4708 107.6682 0010074 180.9616 179.1596 15.10760662933008
SL-14 R/B               
1 20466U 90010B   26007.37667853  .00000590  00000+0  68544-4 0  9992
2 20466  82.5038 324.9695 0020808 138.4425 221.8376 14.83501969919395
SL-14 R/B               
1 20511U 90018B   26007.47044446  .00000560  00000+0  67421-4 0  9999
2 20511  82.5220 280.3177 0015074 296.3073  63.6592 14.82079386913513
HST                     
1 20580U 90037B   26007.32583680  .00006945  00000+0  23581-3 0  9999
2 20580  28.4664  98.2829 0002388 143.0753 217.0007 15.28438111763916
SL-16 R/B               
1 20625U 90046B   26007.47796861  .00000354  00000+0  20720-3 0  9992
2 20625  70.9997  66.4692 0012957  29.7221 330.4635 14.15003522839735
COSMOS 2084             
1 20663U 90055A   26007.47911346  .00003179  00000+0  23406-3 0  9993
2 20663  62.7894 184.2784 0027417 178.4327 181.6864 15.05207323927103
SL-6 R/B(2)             
1 20666U 90055D   26007.51258344  .00002448  00000+0  19405-3 0  9995
2 20666  62.7836 101.8349 0015967 325.0874  34.9176 15.03232454928993
SL-8 R/B                
1 20775U 90078B   26007.31233943  .00012275  00000+0  37454-3 0  9990
2 20775  82.9068 306.4061 0369045 219.7698 137.5939 14.86854855800172
SL-8 R/B                
1 21088U 91006B   26007.53670493  .00000004  00000+0 -11235-4 0  9997
2 21088  82.9408 215.5236 0021897 203.8535 216.5308 13.77492859755657
OKEAN-3                 
1 21397U 91039A   26007.49276788  .00003193  00000+0  22678-3 0  9993
2 21397  82.5161  36.1140 0014600 173.1341 187.0088 15.04311708855834
COSMOS 2151             
1 21422U 91042A   26007.44377147  .00002824  00000+0  22591-3 0  9996
2 21422  82.4978 142.7320 0011177 266.2526  93.7420 14.99817869854011
