CCSDS_OMM_VERS = 2.0
CREATION_DATE  = 
ORIGINATOR     = 

OBJECT_NAME    = DELTA 2 R/B(1)
OBJECT_ID      = 1990-008B
CENTER_NAME    = EARTH
REF_FRAME      = TEME
TIME_SYSTEM    = UTC
MEAN_ELEMENT_THEORY = SGP/SGP4

EPOCH          = 2026-01-06T22:18:56.240640
MEAN_MOTION    = 15.47817393
ECCENTRICITY   = .01040884
INCLINATION    = 35.6034
RA_OF_ASC_NODE = 217.5803
ARG_OF_PERICENTER = 47.4743
MEAN_ANOMALY   = 313.4726

EPHEMERIS_TYPE = 0
CLASSIFICATION_TYPE = U
NORAD_CAT_ID   = 20453
ELEMENT_SET_NO = 999
REV_AT_EPOCH   = 91653
BSTAR          = .769581E-3
MEAN_MOTION_DOT = .51518E-3
MEAN_MOTION_DDOT = 0

CCSDS_OMM_VERS = 2.0
CREATION_DATE  = 
ORIGINATOR     = 

OBJECT_NAME    = COSMOS 2058
OBJECT_ID      = 1990-010A
CENTER_NAME    = EARTH
REF_FRAME      = TEME
TIME_SYSTEM    = UTC
MEAN_ELEMENT_THEORY = SGP/SGP4

EPOCH          = 2026-01-07T12:36:39.830400
MEAN_MOTION    = 15.10760662
ECCENTRICITY   = .0010074
INCLINATION    = 82.4708
RA_OF_ASC_NODE = 107.6682
ARG_OF_PERICENTER = 180.9616
MEAN_ANOMALY   = 179.1596

EPHEMERIS_TYPE = 0
CLASSIFICATION_TYPE = U
NORAD_CAT_ID   = 20465
ELEMENT_SET_NO = 999
REV_AT_EPOCH   = 93300
BSTAR          = .22223E-3
MEAN_MOTION_DOT = .3718E-4
MEAN_MOTION_DDOT = 0

CCSDS_OMM_VERS = 2.0
CREATION_DATE  = 
ORIGINATOR     = 

OBJECT_NAME    = SL-14 R/B
OBJECT_ID      = 1990-010B
CENTER_NAME    = EARTH
REF_FRAME      = TEME
TIME_SYSTEM    = UTC
MEAN_ELEMENT_THEORY = SGP/SGP4

EPOCH          = 2026-01-07T09:02:25.024992
MEAN_MOTION    = 14.83501969
ECCENTRICITY   = .0020808
INCLINATION    = 82.5038
RA_OF_ASC_NODE = 324.9695
ARG_OF_PERICENTER = 138.4425
MEAN_ANOMALY   = 221.8376

EPHEMERIS_TYPE = 0
CLASSIFICATION_TYPE = U
NORAD_CAT_ID   = 20466
ELEMENT_SET_NO = 999
REV_AT_EPOCH   = 91939
BSTAR          = .68544E-4
MEAN_MOTION_DOT = .59E-5
MEAN_MOTION_DDOT = 0

CCSDS_OMM_VERS = 2.0
CREATION_DATE  = 
ORIGINATOR     = 

OBJECT_NAME    = SL-14 R/B
OBJECT_ID      = 1990-018B
CENTER_NAME    = EARTH
REF_FRAME      = TEME
TIME_SYSTEM    = UTC
MEAN_ELEMENT_THEORY = SGP/SGP4

EPOCH          = 2026-01-07T11:17:26.401344
MEAN_MOTION    = 14.82079386
ECCENTRICITY   = .0015074
INCLINATION    = 82.5220
RA_OF_ASC_NODE = 280.3177
ARG_OF_PERICENTER = 296.3073
MEAN_ANOMALY   = 63.6592

EPHEMERIS_TYPE = 0
CLASSIFICATION_TYPE = U
NORAD_CAT_ID   = 20511
ELEMENT_SET_NO = 999
REV_AT_EPOCH   = 91351
BSTAR          = .67421E-4
MEAN_MOTION_DOT = .56E-5
MEAN_MOTION_DDOT = 0

CCSDS_OMM_VERS = 2.0
CREATION_DATE  = 
ORIGINATOR     = 

OBJECT_NAME    = HST
OBJECT_ID      = 1990-037B
CENTER_NAME    = EARTH
REF_FRAME      = TEME
TIME_SYSTEM    = UTC
MEAN_ELEMENT_THEORY = SGP/SGP4

EPOCH          = 2026-01-07T07:49:12.299520
MEAN_MOTION    = 15.28438111
ECCENTRICITY   = .0002388
INCLINATION    = 28.4664
RA_OF_ASC_NODE = 98.2829
ARG_OF_PERICENTER = 143.0753
MEAN_ANOMALY   = 217.0007

EPHEMERIS_TYPE = 0
CLASSIFICATION_TYPE = U
NORAD_CAT_ID   = 20580
ELEMENT_SET_NO = 999
REV_AT_EPOCH   = 76391
BSTAR          = .23581E-3
MEAN_MOTION_DOT = .6945E-4
MEAN_MOTION_DDOT = 0

CCSDS_OMM_VERS = 2.0
CREATION_DATE  = 
ORIGINATOR     = 

OBJECT_NAME    = SL-16 R/B
OBJECT_ID      = 1990-046B
CENTER_NAME    = EARTH
REF_FRAME      = TEME
TIME_SYSTEM    = UTC
MEAN_ELEMENT_THEORY = SGP/SGP4

EPOCH          = 2026-01-07T11:28:16.487904
MEAN_MOTION    = 14.15003522
ECCENTRICITY   = .0012957
INCLINATION    = 70.9997
RA_OF_ASC_NODE = 66.4692
ARG_OF_PERICENTER = 29.7221
MEAN_ANOMALY   = 330.4635

EPHEMERIS_TYPE = 0
CLASSIFICATION_TYPE = U
NORAD_CAT_ID   = 20625
ELEMENT_SET_NO = 999
REV_AT_EPOCH   = 83973
BSTAR          = .2072E-3
MEAN_MOTION_DOT = .354E-5
MEAN_MOTION_DDOT = 0

CCSDS_OMM_VERS = 2.0
CREATION_DATE  = 
ORIGINATOR     = 

OBJECT_NAME    = COSMOS 2084
OBJECT_ID      = 1990-055A
CENTER_NAME    = EARTH
REF_FRAME      = TEME
TIME_SYSTEM    = UTC
MEAN_ELEMENT_THEORY = SGP/SGP4

EPOCH          = 2026-01-07T11:29:55.402944
MEAN_MOTION    = 15.05207323
ECCENTRICITY   = .0027417
INCLINATION    = 62.7894
RA_OF_ASC_NODE = 184.2784
ARG_OF_PERICENTER = 178.4327
MEAN_ANOMALY   = 181.6864

EPHEMERIS_TYPE = 0
CLASSIFICATION_TYPE = U
NORAD_CAT_ID   = 20663
ELEMENT_SET_NO = 999
REV_AT_EPOCH   = 92710
BSTAR          = .23406E-3
MEAN_MOTION_DOT = .3179E-4
MEAN_MOTION_DDOT = 0

CCSDS_OMM_VERS = 2.0
CREATION_DATE  = 
ORIGINATOR     = 

OBJECT_NAME    = SL-6 R/B(2)
OBJECT_ID      = 1990-055D
CENTER_NAME    = EARTH
REF_FRAME      = TEME
TIME_SYSTEM    = UTC
MEAN_ELEMENT_THEORY = SGP/SGP4

EPOCH          = 2026-01-07T12:18:07.209216
MEAN_MOTION    = 15.03232454
ECCENTRICITY   = .0015967
INCLINATION    = 62.7836
RA_OF_ASC_NODE = 101.8349
ARG_OF_PERICENTER = 325.0874
MEAN_ANOMALY   = 34.9176

EPHEMERIS_TYPE = 0
CLASSIFICATION_TYPE = U
NORAD_CAT_ID   = 20666
ELEMENT_SET_NO = 999
REV_AT_EPOCH   = 92899
BSTAR          = .19405E-3
MEAN_MOTION_DOT = .2448E-4
MEAN_MOTION_DDOT = 0

CCSDS_OMM_VERS = 2.0
CREATION_DATE  = 
ORIGINATOR     = 

OBJECT_NAME    = SL-8 R/B
OBJECT_ID      = 1990-078B
CENTER_NAME    = EARTH
REF_FRAME      = TEME
TIME_SYSTEM    = UTC
MEAN_ELEMENT_THEORY = SGP/SGP4

EPOCH          = 2026-01-07T07:29:46.126752
MEAN_MOTION    = 14.86854855
ECCENTRICITY   = .0369045
INCLINATION    = 82.9068
RA_OF_ASC_NODE = 306.4061
ARG_OF_PERICENTER = 219.7698
MEAN_ANOMALY   = 137.5939

EPHEMERIS_TYPE = 0
CLASSIFICATION_TYPE = U
NORAD_CAT_ID   = 20775
ELEMENT_SET_NO = 999
REV_AT_EPOCH   = 80017
BSTAR          = .37454E-3
MEAN_MOTION_DOT = .12275E-3
MEAN_MOTION_DDOT = 0

CCSDS_OMM_VERS = 2.0
CREATION_DATE  = 
ORIGINATOR     = 

OBJECT_NAME    = SL-8 R/B
OBJECT_ID      = 1991-006B
CENTER_NAME    = EARTH
REF_FRAME      = TEME
TIME_SYSTEM    = UTC
MEAN_ELEMENT_THEORY = SGP/SGP4

EPOCH          = 2026-01-07T12:52:51.305952
MEAN_MOTION    = 13.77492859
ECCENTRICITY   = .0021897
INCLINATION    = 82.9408
RA_OF_ASC_NODE = 215.5236
ARG_OF_PERICENTER = 203.8535
MEAN_ANOMALY   = 216.5308

EPHEMERIS_TYPE = 0
CLASSIFICATION_TYPE = U
NORAD_CAT_ID   = 21088
ELEMENT_SET_NO = 999
REV_AT_EPOCH   = 75565
BSTAR          = -.11235E-4
MEAN_MOTION_DOT = .4E-7
MEAN_MOTION_DDOT = 0

CCSDS_OMM_VERS = 2.0
CREATION_DATE  = 
ORIGINATOR     = 

OBJECT_NAME    = OKEAN-3
OBJECT_ID      = 1991-039A
CENTER_NAME    = EARTH
REF_FRAME      = TEME
TIME_SYSTEM    = UTC
MEAN_ELEMENT_THEORY = SGP/SGP4

EPOCH          = 2026-01-07T11:49:35.144832
MEAN_MOTION    = 15.04311708
ECCENTRICITY   = .00146
INCLINATION    = 82.5161
RA_OF_ASC_NODE = 36.1140
ARG_OF_PERICENTER = 173.1341
MEAN_ANOMALY   = 187.0088

EPHEMERIS_TYPE = 0
CLASSIFICATION_TYPE = U
NORAD_CAT_ID   = 21397
ELEMENT_SET_NO = 999
REV_AT_EPOCH   = 85583
BSTAR          = .22678E-3
MEAN_MOTION_DOT = .3193E-4
MEAN_MOTION_DDOT = 0

CCSDS_OMM_VERS = 2.0
CREATION_DATE  = 
ORIGINATOR     = 

OBJECT_NAME    = COSMOS 2151
OBJECT_ID      = 1991-042A
CENTER_NAME    = EARTH
REF_FRAME      = TEME
TIME_SYSTEM    = UTC
MEAN_ELEMENT_THEORY = SGP/SGP4

EPOCH          = 2026-01-07T10:39:01.855008
MEAN_MOTION    = 14.99817869
ECCENTRICITY   = .0011177
INCLINATION    = 82.4978
RA_OF_ASC_NODE = 142.7320
ARG_OF_PERICENTER = 266.2526
MEAN_ANOMALY   = 93.7420

EPHEMERIS_TYPE = 0
CLASSIFICATION_TYPE = U
NORAD_CAT_ID   = 21422
ELEMENT_SET_NO = 999
REV_AT_EPOCH   = 85401
BSTAR          = .22591E-3
MEAN_MOTION_DOT = .2824E-4
MEAN_MOTION_DDOT = 0

